{"type": "FeatureCollection", "features": [ {"type": "Feature", "properties": {"norad_id": 35594, "name": "COSMOS 2251 DEB", "group": "cosmos-2251-debris", "lat": -47.72500333611313, "lon": 82.34694538251136, "alt_km": 613.1660361171053, "timestamp": "2025-12-15T11:38:37.548334+00:00", "meta": {"OBJECT_NAME": "COSMOS 2251 DEB", "OBJECT_ID": "1993-036AMM", "EPOCH": "2025-12-11T07:49:43.768128", "MEAN_MOTION": 14.87869065, "ECCENTRICITY": 0.00302327, "INCLINATION": 73.8067, "RA_OF_ASC_NODE": 109.3962, "ARG_OF_PERICENTER": 220.7507, "MEAN_ANOMALY": 139.1411, "EPHEMERIS_TYPE": 0, "CLASSIFICATION_TYPE": "U", "NORAD_CAT_ID": 35594, "ELEMENT_SET_NO": 999, "REV_AT_EPOCH": 88164, "BSTAR": 0.003372362, "MEAN_MOTION_DOT": 0.00031222, "MEAN_MOTION_DDOT": 0}, "tle": {"line1": "1 35594U 93036AMM 25345.32620102  .00031222  00000+0  33724-2 0  9992", "line2": "2 35594  73.8067 109.3962 0030232 220.7507 139.1411 14.87869065881643"}}, "geometry": {"type": "Point", "coordinates": [82.34694538251136, -47.72500333611313]}}, {"type": "Feature", "properties": {"norad_id": 35602, "name": "COSMOS 2251 DEB", "group": "cosmos-2251-debris", "lat": 15.700716553779296, "lon": -8.321097309452611, "alt_km": 447.5489129731777, "timestamp": "2025-12-15T11:38:37.548344+00:00", "meta": {"OBJECT_NAME": "COSMOS 2251 DEB", "OBJECT_ID": "1993-036AMV", "EPOCH": "2025-12-14T23:04:30.338400", "MEAN_MOTION": 15.35166105, "ECCENTRICITY": 0.00895946, "INCLINATION": 73.9937, "RA_OF_ASC_NODE": 177.4334, "ARG_OF_PERICENTER": 242.7659, "MEAN_ANOMALY": 268.7768, "EPHEMERIS_TYPE": 0, "CLASSIFICATION_TYPE": "U", "NORAD_CAT_ID": 35602, "ELEMENT_SET_NO": 999, "REV_AT_EPOCH": 90125, "BSTAR": 0.00037746577, "MEAN_MOTION_DOT": 0.00014683, "MEAN_MOTION_DDOT": 0}, "tle": {"line1": "1 35602U 93036AMV 25348.96146225  .00014683  00000+0  37747-3 0  9996", "line2": "2 35602  73.9937 177.4334 0089594 242.7659 268.7768 15.35166105901259"}}, "geometry": {"type": "Point", "coordinates": [-8.321097309452611, 15.700716553779296]}}, {"type": "Feature", "properties": {"norad_id": 35605, "name": "COSMOS 2251 DEB", "group": "cosmos-2251-debris", "lat": -29.982403785918518, "lon": 160.2855142877136, "alt_km": 452.4375273229516, "timestamp": "2025-12-15T11:38:37.548353+00:00", "meta": {"OBJECT_NAME": "COSMOS 2251 DEB", "OBJECT_ID": "1993-036AMY", "EPOCH": "2025-12-13T05:33:00.611712", "MEAN_MOTION": 15.34448038, "ECCENTRICITY": 0.00255309, "INCLINATION": 73.8715, "RA_OF_ASC_NODE": 335.5566, "ARG_OF_PERICENTER": 266.9711, "MEAN_ANOMALY": 92.8571, "EPHEMERIS_TYPE": 0, "CLASSIFICATION_TYPE": "U", "NORAD_CAT_ID": 35605, "ELEMENT_SET_NO": 999, "REV_AT_EPOCH": 65979, "BSTAR": 0.010289697, "MEAN_MOTION_DOT": 0.0036361, "MEAN_MOTION_DDOT": 0}, "tle": {"line1": "1 35605U 93036AMY 25347.23125708  .00363610  00000+0  10290-1 0  9990", "line2": "2 35605  73.8715 335.5566 0025530 266.9711  92.8571 15.34448038659790"}}, "geometry": {"type": "Point", "coordinates": [160.2855142877136, -29.982403785918518]}}, {"type": "Feature", "properties": {"norad_id": 35606, "name": "COSMOS 2251 DEB", "group": "cosmos-2251-debris", "lat": 48.41205373946749, "lon": 167.31488515700974, "alt_km": 1042.7784023853364, "timestamp": "2025-12-15T11:38:37.548363+00:00", "meta": {"OBJECT_NAME": "COSMOS 2251 DEB", "OBJECT_ID": "1993-036AMZ", "EPOCH": "2025-12-14T18:51:10.795968", "MEAN_MOTION": 13.4121429, "ECCENTRICITY": 0.04574293, "INCLINATION": 73.8107, "RA_OF_ASC_NODE": 7.5364, "ARG_OF_PERICENTER": 212.9756, "MEAN_ANOMALY": 144.2045, "EPHEMERIS_TYPE": 0, "CLASSIFICATION_TYPE": "U", "NORAD_CAT_ID": 35606, "ELEMENT_SET_NO": 999, "REV_AT_EPOCH": 61067, "BSTAR": 0.00068870104, "MEAN_MOTION_DOT": 6.85e-06, "MEAN_MOTION_DDOT": 0}, "tle": {"line1": "1 35606U 93036AMZ 25348.78554162  .00000685  00000+0  68870-3 0  9991", "line2": "2 35606  73.8107   7.5364 0457429 212.9756 144.2045 13.41214290610673"}}, "geometry": {"type": "Point", "coordinates": [167.31488515700974, 48.41205373946749]}}, {"type": "Feature", "properties": {"norad_id": 35611, "name": "COSMOS 2251 DEB", "group": "cosmos-2251-debris", "lat": 57.66090510002252, "lon": -32.96341094782338, "alt_km": 655.2049103344698, "timestamp": "2025-12-15T11:38:37.548373+00:00", "meta": {"OBJECT_NAME": "COSMOS 2251 DEB", "OBJECT_ID": "1993-036ANE", "EPOCH": "2025-12-14T22:03:55.318464", "MEAN_MOTION": 14.72918088, "ECCENTRICITY": 0.00215588, "INCLINATION": 74.0194, "RA_OF_ASC_NODE": 175.0515, "ARG_OF_PERICENTER": 247.96, "MEAN_ANOMALY": 111.9283, "EPHEMERIS_TYPE": 0, "CLASSIFICATION_TYPE": "U", "NORAD_CAT_ID": 35611, "ELEMENT_SET_NO": 999, "REV_AT_EPOCH": 87322, "BSTAR": 0.0014598859, "MEAN_MOTION_DOT": 9.374e-05, "MEAN_MOTION_DDOT": 0}, "tle": {"line1": "1 35611U 93036ANE 25348.91939026  .00009374  00000+0  14599-2 0  9990", "line2": "2 35611  74.0194 175.0515 0021558 247.9600 111.9283 14.72918088873221"}}, "geometry": {"type": "Point", "coordinates": [-32.96341094782338, 57.66090510002252]}}, {"type": "Feature", "properties": {"norad_id": 35614, "name": "COSMOS 2251 DEB", "group": "cosmos-2251-debris", "lat": -0.700113186530938, "lon": 142.34241126785403, "alt_km": 620.028194232732, "timestamp": "2025-12-15T11:38:37.548382+00:00", "meta": {"OBJECT_NAME": "COSMOS 2251 DEB", "OBJECT_ID": "1993-036ANH", "EPOCH": "2025-12-13T06:27:06.231168", "MEAN_MOTION": 14.67025191, "ECCENTRICITY": 0.00756959, "INCLINATION": 73.9589, "RA_OF_ASC_NODE": 326.4366, "ARG_OF_PERICENTER": 180.7813, "MEAN_ANOMALY": 179.3251, "EPHEMERIS_TYPE": 0, "CLASSIFICATION_TYPE": "U", "NORAD_CAT_ID": 35614, "ELEMENT_SET_NO": 999, "REV_AT_EPOCH": 87737, "BSTAR": 0.0013853104, "MEAN_MOTION_DOT": 8.085e-05, "MEAN_MOTION_DDOT": 0}, "tle": {"line1": "1 35614U 93036ANH 25347.26882212  .00008085  00000+0  13853-2 0  9994", "line2": "2 35614  73.9589 326.4366 0075695 180.7813 179.3251 14.67025191877378"}}, "geometry": {"type": "Point", "coordinates": [142.34241126785403, -0.700113186530938]}}, {"type": "Feature", "properties": {"norad_id": 35645, "name": "COSMOS 2251 DEB", "group": "cosmos-2251-debris", "lat": 46.25895058463371, "lon": 100.08076196238964, "alt_km": 784.1155421602334, "timestamp": "2025-12-15T11:38:37.548392+00:00", "meta": {"OBJECT_NAME": "COSMOS 2251 DEB", "OBJECT_ID": "1993-036ANL", "EPOCH": "2025-12-13T14:34:24.235680", "MEAN_MOTION": 14.45604624, "ECCENTRICITY": 0.00695566, "INCLINATION": 73.964, "RA_OF_ASC_NODE": 86.1067, "ARG_OF_PERICENTER": 243.7291, "MEAN_ANOMALY": 115.6708, "EPHEMERIS_TYPE": 0, "CLASSIFICATION_TYPE": "U", "NORAD_CAT_ID": 35645, "ELEMENT_SET_NO": 999, "REV_AT_EPOCH": 86784, "BSTAR": 0.0025198742, "MEAN_MOTION_DOT": 9.157e-05, "MEAN_MOTION_DDOT": 0}, "tle": {"line1": "1 35645U 93036ANL 25347.60722495  .00009157  00000+0  25199-2 0  9999", "line2": "2 35645  73.9640  86.1067 0069556 243.7291 115.6708 14.45604624867848"}}, "geometry": {"type": "Point", "coordinates": [100.08076196238964, 46.25895058463371]}}, {"type": "Feature", "properties": {"norad_id": 35646, "name": "COSMOS 2251 DEB", "group": "cosmos-2251-debris", "lat": 13.505019637625102, "lon": 55.65719541110395, "alt_km": 1389.496007578602, "timestamp": "2025-12-15T11:38:37.548402+00:00", "meta": {"OBJECT_NAME": "COSMOS 2251 DEB", "OBJECT_ID": "1993-036ANM", "EPOCH": "2025-12-14T22:06:49.108608", "MEAN_MOTION": 13.40825334, "ECCENTRICITY": 0.04567252, "INCLINATION": 73.8726, "RA_OF_ASC_NODE": 52.5668, "ARG_OF_PERICENTER": 162.3902, "MEAN_ANOMALY": 14.4597, "EPHEMERIS_TYPE": 0, "CLASSIFICATION_TYPE": "U", "NORAD_CAT_ID": 35646, "ELEMENT_SET_NO": 999, "REV_AT_EPOCH": 81887, "BSTAR": 0.00057882539, "MEAN_MOTION_DOT": 5.7e-06, "MEAN_MOTION_DDOT": 0}, "tle": {"line1": "1 35646U 93036ANM 25348.92140172  .00000570  00000+0  57883-3 0  9998", "line2": "2 35646  73.8726  52.5668 0456725 162.3902  14.4597 13.40825334818878"}}, "geometry": {"type": "Point", "coordinates": [55.65719541110395, 13.505019637625102]}}, {"type": "Feature", "properties": {"norad_id": 35647, "name": "COSMOS 2251 DEB", "group": "cosmos-2251-debris", "lat": 70.72284733532472, "lon": 54.45850606921779, "alt_km": 729.6272231363091, "timestamp": "2025-12-15T11:38:37.548412+00:00", "meta": {"OBJECT_NAME": "COSMOS 2251 DEB", "OBJECT_ID": "1993-036ANN", "EPOCH": "2025-12-14T13:33:39.686688", "MEAN_MOTION": 14.43645909, "ECCENTRICITY": 0.00456042, "INCLINATION": 74.0231, "RA_OF_ASC_NODE": 291.1692, "ARG_OF_PERICENTER": 29.8407, "MEAN_ANOMALY": 330.5335, "EPHEMERIS_TYPE": 0, "CLASSIFICATION_TYPE": "U", "NORAD_CAT_ID": 35647, "ELEMENT_SET_NO": 999, "REV_AT_EPOCH": 67690, "BSTAR": 0.00083775206, "MEAN_MOTION_DOT": 2.853e-05, "MEAN_MOTION_DDOT": 0}, "tle": {"line1": "1 35647U 93036ANN 25348.56504267  .00002853  00000+0  83775-3 0  9993", "line2": "2 35647  74.0231 291.1692 0045604  29.8407 330.5335 14.43645909676908"}}, "geometry": {"type": "Point", "coordinates": [54.45850606921779, 70.72284733532472]}}, {"type": "Feature", "properties": {"norad_id": 35650, "name": "COSMOS 2251 DEB", "group": "cosmos-2251-debris", "lat": -49.97818204736314, "lon": -6.473980421479352, "alt_km": 628.058900740748, "timestamp": "2025-12-15T11:38:37.548421+00:00", "meta": {"OBJECT_NAME": "COSMOS 2251 DEB", "OBJECT_ID": "1993-036ANR", "EPOCH": "2025-12-14T08:25:39.461088", "MEAN_MOTION": 14.83681914, "ECCENTRICITY": 0.00146754, "INCLINATION": 74.0466, "RA_OF_ASC_NODE": 15.6866, "ARG_OF_PERICENTER": 62.1193, "MEAN_ANOMALY": 310.7797, "EPHEMERIS_TYPE": 0, "CLASSIFICATION_TYPE": "U", "NORAD_CAT_ID": 35650, "ELEMENT_SET_NO": 999, "REV_AT_EPOCH": 87658, "BSTAR": 0.0017772304, "MEAN_MOTION_DOT": 0.0001471, "MEAN_MOTION_DDOT": 0}, "tle": {"line1": "1 35650U 93036ANR 25348.35115117  .00014710  00000+0  17772-2 0  9994", "line2": "2 35650  74.0466  15.6866 0014675  62.1193 310.7797 14.83681914876588"}}, "geometry": {"type": "Point", "coordinates": [-6.473980421479352, -49.97818204736314]}}]}